{"type": "FeatureCollection", "features": [ {"type": "Feature", "properties": {"norad_id": 58662, "name": "TIANMU-1 21", "group": "weather", "lat": 31.35013809732559, "lon": -61.51591100371708, "alt_km": 466.1307586123057, "timestamp": "2025-12-26T11:25:44.866551+00:00", "meta": {"OBJECT_NAME": "TIANMU-1 21", "OBJECT_ID": "2023-208C", "EPOCH": "2025-12-26T04:30:45.486144", "MEAN_MOTION": 15.31839301, "ECCENTRICITY": 0.0006517, "INCLINATION": 97.4373, "RA_OF_ASC_NODE": 113.6303, "ARG_OF_PERICENTER": 204.9579, "MEAN_ANOMALY": 155.1348, "EPHEMERIS_TYPE": 0, "CLASSIFICATION_TYPE": "U", "NORAD_CAT_ID": 58662, "ELEMENT_SET_NO": 999, "REV_AT_EPOCH": 11105, "BSTAR": 0.00038113, "MEAN_MOTION_DOT": 0.00011651, "MEAN_MOTION_DDOT": 0}, "tle": {"line1": "1 58662U 23208C   25360.18802646  .00011651  00000+0  38113-3 0  9995", "line2": "2 58662  97.4373 113.6303 0006517 204.9579 155.1348 15.31839301111053"}}, "geometry": {"type": "Point", "coordinates": [-61.51591100371708, 31.35013809732559]}}, {"type": "Feature", "properties": {"norad_id": 58663, "name": "TIANMU-1 22", "group": "weather", "lat": -53.622639499471966, "lon": -78.67460915554466, "alt_km": 487.31870969991724, "timestamp": "2025-12-26T11:25:44.866560+00:00", "meta": {"OBJECT_NAME": "TIANMU-1 22", "OBJECT_ID": "2023-208D", "EPOCH": "2025-12-26T04:07:10.344000", "MEAN_MOTION": 15.27830733, "ECCENTRICITY": 0.000305, "INCLINATION": 97.438, "RA_OF_ASC_NODE": 111.2368, "ARG_OF_PERICENTER": 219.162, "MEAN_ANOMALY": 140.9399, "EPHEMERIS_TYPE": 0, "CLASSIFICATION_TYPE": "U", "NORAD_CAT_ID": 58663, "ELEMENT_SET_NO": 999, "REV_AT_EPOCH": 11088, "BSTAR": 0.00033783, "MEAN_MOTION_DOT": 9.109e-05, "MEAN_MOTION_DDOT": 0}, "tle": {"line1": "1 58663U 23208D   25360.17164750  .00009109  00000+0  33783-3 0  9995", "line2": "2 58663  97.4380 111.2368 0003050 219.1620 140.9399 15.27830733110884"}}, "geometry": {"type": "Point", "coordinates": [-78.67460915554466, -53.622639499471966]}}, {"type": "Feature", "properties": {"norad_id": 58700, "name": "TIANMU-1 15", "group": "weather", "lat": -24.700257143121817, "lon": -1.5625421263404826, "alt_km": 493.9460049326799, "timestamp": "2025-12-26T11:25:44.866569+00:00", "meta": {"OBJECT_NAME": "TIANMU-1 15", "OBJECT_ID": "2024-004A", "EPOCH": "2025-12-26T04:13:56.316864", "MEAN_MOTION": 15.24584986, "ECCENTRICITY": 0.0006105, "INCLINATION": 97.4631, "RA_OF_ASC_NODE": 181.5955, "ARG_OF_PERICENTER": 232.9469, "MEAN_ANOMALY": 127.1211, "EPHEMERIS_TYPE": 0, "CLASSIFICATION_TYPE": "U", "NORAD_CAT_ID": 58700, "ELEMENT_SET_NO": 999, "REV_AT_EPOCH": 10939, "BSTAR": 0.00029524, "MEAN_MOTION_DOT": 7.209e-05, "MEAN_MOTION_DDOT": 0}, "tle": {"line1": "1 58700U 24004A   25360.17634626  .00007209  00000+0  29524-3 0  9993", "line2": "2 58700  97.4631 181.5955 0006105 232.9469 127.1211 15.24584986109392"}}, "geometry": {"type": "Point", "coordinates": [-1.5625421263404826, -24.700257143121817]}}, {"type": "Feature", "properties": {"norad_id": 58701, "name": "TIANMU-1 16", "group": "weather", "lat": -70.84827645685375, "lon": -156.57074455063292, "alt_km": 497.45447534922823, "timestamp": "2025-12-26T11:25:44.866581+00:00", "meta": {"OBJECT_NAME": "TIANMU-1 16", "OBJECT_ID": "2024-004B", "EPOCH": "2025-12-26T03:52:11.993088", "MEAN_MOTION": 15.24612276, "ECCENTRICITY": 0.000445, "INCLINATION": 97.457, "RA_OF_ASC_NODE": 180.9586, "ARG_OF_PERICENTER": 234.681, "MEAN_ANOMALY": 125.4011, "EPHEMERIS_TYPE": 0, "CLASSIFICATION_TYPE": "U", "NORAD_CAT_ID": 58701, "ELEMENT_SET_NO": 999, "REV_AT_EPOCH": 10939, "BSTAR": 0.00028427, "MEAN_MOTION_DOT": 6.942e-05, "MEAN_MOTION_DDOT": 0}, "tle": {"line1": "1 58701U 24004B   25360.16124992  .00006942  00000+0  28427-3 0  9997", "line2": "2 58701  97.4570 180.9586 0004450 234.6810 125.4011 15.24612276109391"}}, "geometry": {"type": "Point", "coordinates": [-156.57074455063292, -70.84827645685375]}}, {"type": "Feature", "properties": {"norad_id": 58702, "name": "TIANMU-1 17", "group": "weather", "lat": 14.129389284954968, "lon": 179.79887987420142, "alt_km": 494.7917378125285, "timestamp": "2025-12-26T11:25:44.866590+00:00", "meta": {"OBJECT_NAME": "TIANMU-1 17", "OBJECT_ID": "2024-004C", "EPOCH": "2025-12-26T05:03:58.449888", "MEAN_MOTION": 15.24655961, "ECCENTRICITY": 0.0003617, "INCLINATION": 97.4604, "RA_OF_ASC_NODE": 181.4252, "ARG_OF_PERICENTER": 235.206, "MEAN_ANOMALY": 124.8838, "EPHEMERIS_TYPE": 0, "CLASSIFICATION_TYPE": "U", "NORAD_CAT_ID": 58702, "ELEMENT_SET_NO": 999, "REV_AT_EPOCH": 10939, "BSTAR": 0.00029433, "MEAN_MOTION_DOT": 7.199e-05, "MEAN_MOTION_DDOT": 0}, "tle": {"line1": "1 58702U 24004C   25360.21109317  .00007199  00000+0  29433-3 0  9991", "line2": "2 58702  97.4604 181.4252 0003617 235.2060 124.8838 15.24655961109392"}}, "geometry": {"type": "Point", "coordinates": [179.79887987420142, 14.129389284954968]}}, {"type": "Feature", "properties": {"norad_id": 58703, "name": "TIANMU-1 18", "group": "weather", "lat": 73.17859206482798, "lon": 27.580128857175982, "alt_km": 486.0661478291395, "timestamp": "2025-12-26T11:25:44.866599+00:00", "meta": {"OBJECT_NAME": "TIANMU-1 18", "OBJECT_ID": "2024-004D", "EPOCH": "2025-12-26T04:40:08.491872", "MEAN_MOTION": 15.24638197, "ECCENTRICITY": 0.0003009, "INCLINATION": 97.4621, "RA_OF_ASC_NODE": 181.6069, "ARG_OF_PERICENTER": 231.7291, "MEAN_ANOMALY": 128.3676, "EPHEMERIS_TYPE": 0, "CLASSIFICATION_TYPE": "U", "NORAD_CAT_ID": 58703, "ELEMENT_SET_NO": 999, "REV_AT_EPOCH": 10939, "BSTAR": 0.00030174, "MEAN_MOTION_DOT": 7.378e-05, "MEAN_MOTION_DDOT": 0}, "tle": {"line1": "1 58703U 24004D   25360.19454273  .00007378  00000+0  30174-3 0  9996", "line2": "2 58703  97.4621 181.6069 0003009 231.7291 128.3676 15.24638197109393"}}, "geometry": {"type": "Point", "coordinates": [27.580128857175982, 73.17859206482798]}}, {"type": "Feature", "properties": {"norad_id": 58990, "name": "INSAT-3DS", "group": "weather", "lat": -0.06352746414450644, "lon": -11.227321828850071, "alt_km": 35784.68734424236, "timestamp": "2025-12-26T11:25:44.866609+00:00", "meta": {"OBJECT_NAME": "INSAT-3DS", "OBJECT_ID": "2024-033A", "EPOCH": "2025-12-25T23:43:34.512960", "MEAN_MOTION": 1.00271049, "ECCENTRICITY": 0.0001311, "INCLINATION": 0.0621, "RA_OF_ASC_NODE": 99.2069, "ARG_OF_PERICENTER": 176.6391, "MEAN_ANOMALY": 256.8968, "EPHEMERIS_TYPE": 0, "CLASSIFICATION_TYPE": "U", "NORAD_CAT_ID": 58990, "ELEMENT_SET_NO": 999, "REV_AT_EPOCH": 4533, "BSTAR": 0, "MEAN_MOTION_DOT": -1.34e-06, "MEAN_MOTION_DDOT": 0}, "tle": {"line1": "1 58990U 24033A   25359.98859390 -.00000134  00000+0  00000+0 0  9995", "line2": "2 58990   0.0621  99.2069 0001311 176.6391 256.8968  1.00271049 45339"}}, "geometry": {"type": "Point", "coordinates": [-11.227321828850071, -0.06352746414450644]}}, {"type": "Feature", "properties": {"norad_id": 59051, "name": "METEOR-M2 4", "group": "weather", "lat": -78.91818233630448, "lon": 8.414590686077444, "alt_km": 821.060442691446, "timestamp": "2025-12-26T11:25:44.866618+00:00", "meta": {"OBJECT_NAME": "METEOR-M2 4", "OBJECT_ID": "2024-039A", "EPOCH": "2025-12-26T05:03:57.070944", "MEAN_MOTION": 14.22403315, "ECCENTRICITY": 0.0006349, "INCLINATION": 98.6786, "RA_OF_ASC_NODE": 316.9099, "ARG_OF_PERICENTER": 317.7793, "MEAN_ANOMALY": 42.2896, "EPHEMERIS_TYPE": 0, "CLASSIFICATION_TYPE": "U", "NORAD_CAT_ID": 59051, "ELEMENT_SET_NO": 999, "REV_AT_EPOCH": 9467, "BSTAR": 3.9335e-05, "MEAN_MOTION_DOT": 4.4e-07, "MEAN_MOTION_DDOT": 0}, "tle": {"line1": "1 59051U 24039A   25360.21107721  .00000044  00000+0  39335-4 0  9999", "line2": "2 59051  98.6786 316.9099 0006349 317.7793  42.2896 14.22403315 94674"}}, "geometry": {"type": "Point", "coordinates": [8.414590686077444, -78.91818233630448]}}, {"type": "Feature", "properties": {"norad_id": 60133, "name": "GOES 19", "group": "weather", "lat": 0.016992044334975955, "lon": -168.5465963835823, "alt_km": 35789.17414722976, "timestamp": "2025-12-26T11:25:44.866628+00:00", "meta": {"OBJECT_NAME": "GOES 19", "OBJECT_ID": "2024-119A", "EPOCH": "2025-12-26T02:31:04.440000", "MEAN_MOTION": 1.00270613, "ECCENTRICITY": 0.0001081, "INCLINATION": 0.0424, "RA_OF_ASC_NODE": 180.8341, "ARG_OF_PERICENTER": 137.6202, "MEAN_ANOMALY": 98.9833, "EPHEMERIS_TYPE": 0, "CLASSIFICATION_TYPE": "U", "NORAD_CAT_ID": 60133, "ELEMENT_SET_NO": 999, "REV_AT_EPOCH": 522, "BSTAR": 0, "MEAN_MOTION_DOT": -2.26e-06, "MEAN_MOTION_DDOT": 0}, "tle": {"line1": "1 60133U 24119A   25360.10491250 -.00000226  00000+0  00000+0 0  9997", "line2": "2 60133   0.0424 180.8341 0001081 137.6202  98.9833  1.00270613  5220"}}, "geometry": {"type": "Point", "coordinates": [-168.5465963835823, 0.016992044334975955]}}, {"type": "Feature", "properties": {"norad_id": 65815, "name": "FENGYUN 3H", "group": "weather", "lat": 32.07911296159307, "lon": -65.71227658499761, "alt_km": 823.5950842120319, "timestamp": "2025-12-26T11:25:44.866638+00:00", "meta": {"OBJECT_NAME": "FENGYUN 3H", "OBJECT_ID": "2025-219A", "EPOCH": "2025-12-26T02:49:14.034720", "MEAN_MOTION": 14.1990818, "ECCENTRICITY": 8.65e-05, "INCLINATION": 98.6602, "RA_OF_ASC_NODE": 299.4185, "ARG_OF_PERICENTER": 109.6936, "MEAN_ANOMALY": 250.4334, "EPHEMERIS_TYPE": 0, "CLASSIFICATION_TYPE": "U", "NORAD_CAT_ID": 65815, "ELEMENT_SET_NO": 999, "REV_AT_EPOCH": 1282, "BSTAR": 6.5147e-05, "MEAN_MOTION_DOT": 9.5e-07, "MEAN_MOTION_DDOT": 0}, "tle": {"line1": "1 65815U 25219A   25360.11752355  .00000095  00000+0  65147-4 0  9999", "line2": "2 65815  98.6602 299.4185 0000865 109.6936 250.4334 14.19908180 12824"}}, "geometry": {"type": "Point", "coordinates": [-65.71227658499761, 32.07911296159307]}}]}